NORAD_CAT_ID,OBJECT_NAME,OBJECT_TYPE,EPOCH,MEAN_MOTION,ECCENTRICITY,INCLINATION,RA_OF_ASC_NODE,ARG_OF_PERICENTER,MEAN_ANOMALY,BSTAR,MEAN_MOTION_DOT,MEAN_MOTION_DDOT,TLE_LINE0,TLE_LINE1,TLE_LINE2,SEMIMAJOR_AXIS,PERIOD,APOGEE,PERIGEE,DECAYED
51860.0,STARLINK-3559,PAYLOAD,2024-07-06 12:45:08,15.088386,0.0001428,53.2163,232.7164,89.8213,270.2943,-4.9956e-05,-1.083e-05,0.0,0 STARLINK-3559,1 51860U 22022J   24188.53134892 -.00001083  00000-0 -49956-4 0  9997,2 51860  53.2163 232.7164 0001428  89.8213 270.2943 15.08838600130856,6917.885,95.438,540.738,538.762,0.0
51860.0,STARLINK-3559,PAYLOAD,2024-07-07 09:25:08,15.08842447,0.0001512,53.2164,228.8509,94.226,265.8905,3.7932e-05,3.16e-06,0.0,0 STARLINK-3559,1 51860U 22022J   24189.39246353  .00000316  00000-0  37932-4 0  9995,2 51860  53.2164 228.8509 0001512  94.2260 265.8905 15.08842447130988,6917.873,95.437,540.784,538.692,0.0
51860.0,STARLINK-3559,PAYLOAD,2024-07-08 09:15:55,15.08838917,0.0001486,53.2162,224.3899,92.6108,267.5054,0.00013254,1.822e-05,0.0,0 STARLINK-3559,1 51860U 22022J   24190.38606368  .00001822  00000-0  13254-3 0  9995,2 51860  53.2162 224.3899 0001486  92.6108 267.5054 15.08838917131131,6917.884,95.438,540.777,538.721,0.0
51860.0,STARLINK-3559,PAYLOAD,2024-07-08 18:48:14,15.08838465,0.0001388,53.2154,222.6051,88.9955,271.1196,7.2691e-05,8.69e-06,0.0,0 STARLINK-3559,1 51860U 22022J   24190.78350609  .00000869  00000-0  72691-4 0  9994,2 51860  53.2154 222.6051 0001388  88.9955 271.1196 15.08838465131194,6917.885,95.438,540.71,538.79,0.0
51860.0,STARLINK-3559,PAYLOAD,2024-07-09 09:06:43,15.08834008,0.0001499,53.2164,219.9318,97.694,262.4223,-3.7291e-05,-8.81e-06,0.0,0 STARLINK-3559,1 51860U 22022J   24191.37967322 -.00000881  00000-0 -37291-4 0  9999,2 51860  53.2164 219.9318 0001499  97.6940 262.4223 15.08834008131287,6917.899,95.438,540.801,538.727,0.0
51860.0,STARLINK-3559,PAYLOAD,2024-07-10 12:08:16,15.08840114,0.0001396,53.2159,214.8752,92.421,267.6942,1.9565e-05,2.3e-07,0.0,0 STARLINK-3559,1 51860U 22022J   24192.50574941  .00000023  00000-0  19565-4 0  9996,2 51860  53.2159 214.8752 0001396  92.4210 267.6942 15.08840114131455,6917.88,95.438,540.711,538.779,0.0
51860.0,STARLINK-3559,PAYLOAD,2024-07-11 10:23:40,15.08837941,0.0001294,53.2154,210.7106,86.6654,273.4486,8.6457e-05,1.088e-05,0.0,0 STARLINK-3559,1 51860U 22022J   24193.43311050  .00001088  00000-0  86457-4 0  9995,2 51860  53.2154 210.7106 0001294  86.6654 273.4486 15.08837941131599,6917.887,95.438,540.647,538.857,0.0
51860.0,STARLINK-3559,PAYLOAD,2024-07-11 18:20:36,15.08839335,0.0001289,53.2154,209.2238,87.19,272.9239,7.8885e-05,9.68e-06,0.0,0 STARLINK-3559,1 51860U 22022J   24193.76431012  .00000968  00000-0  78885-4 0  9994,2 51860  53.2154 209.2238 0001289  87.1900 272.9239 15.08839335131647,6917.882,95.438,540.639,538.856,0.0
51860.0,STARLINK-3559,PAYLOAD,2024-07-12 08:39:04,15.08843379,0.0001321,53.2155,206.5472,87.8465,272.2678,6.5805e-05,7.6e-06,0.0,0 STARLINK-3559,1 51860U 22022J   24194.36046833  .00000760  00000-0  65805-4 0  9992,2 51860  53.2155 206.5472 0001321  87.8465 272.2678 15.08843379131731,6917.87,95.437,540.649,538.821,0.0
51860.0,STARLINK-3559,PAYLOAD,2024-07-12 18:11:23,15.08842408,0.0001323,53.2155,204.7631,87.6251,272.4893,5.4667e-05,5.82e-06,0.0,0 STARLINK-3559,1 51860U 22022J   24194.75790898  .00000582  00000-0  54667-4 0  9998,2 51860  53.2155 204.7631 0001323  87.6251 272.4893 15.08842408131790,6917.873,95.437,540.653,538.823,0.0
51860.0,STARLINK-3559,PAYLOAD,2024-07-13 05:19:02,15.08870003,0.0001852,53.2154,202.6812,114.3899,245.7287,0.00026687,3.965e-05,0.0,0 STARLINK-3559,1 51860U 22022J   24195.22156230  .00003965  00000-0  26687-3 0  9995,2 51860  53.2154 202.6812 0001852 114.3899 245.7287 15.08870003131860,6917.789,95.436,540.935,538.373,0.0
51860.0,STARLINK-3559,PAYLOAD,2024-07-13 06:54:25,15.08878561,4.5e-05,53.2153,202.3837,102.7127,257.3915,0.0003406,5.143e-05,0.0,0 STARLINK-3559,1 51860U 22022J   24195.28779296  .00005143  00000-0  34060-3 0  9998,2 51860  53.2153 202.3837 0000450 102.7127 257.3915 15.08878561131876,6917.763,95.435,539.939,539.316,0.0
51860.0,STARLINK-3559,PAYLOAD,2024-07-13 18:02:08,15.08859577,0.0001295,53.2152,200.3034,86.3979,273.7161,0.00015003,2.102e-05,0.0,0 STARLINK-3559,1 51860U 22022J   24195.75148514  .00002102  00000-0  15003-3 0  9991,2 51860  53.2152 200.3034 0001295  86.3979 273.7161 15.08859577131941,6917.821,95.436,540.581,538.79,0.0
51860.0,STARLINK-3559,PAYLOAD,2024-07-14 05:09:51,15.08839591,0.0001385,53.2154,198.2218,87.5491,272.5659,-1.5693e-05,-5.38e-06,0.0,0 STARLINK-3559,1 51860U 22022J   24196.21518084 -.00000538  00000-0 -15693-4 0  9995,2 51860  53.2154 198.2218 0001385  87.5491 272.5659 15.08839591132016,6917.882,95.438,540.705,538.789,0.0
51860.0,STARLINK-3559,PAYLOAD,2024-07-14 06:45:14,15.08840227,0.0001372,53.2154,197.9244,88.7217,271.3933,-1.0456e-05,-4.54e-06,0.0,0 STARLINK-3559,1 51860U 22022J   24196.28142012 -.00000454  00000-0 -10456-4 0  9995,2 51860  53.2154 197.9244 0001372  88.7217 271.3933 15.08840227132027,6917.88,95.438,540.694,538.796,0.0
51860.0,STARLINK-3559,PAYLOAD,2024-07-15 09:46:48,15.08848917,0.0001215,53.2156,192.8681,108.473,251.6394,-0.00025106,-4.282e-05,0.0,0 STARLINK-3559,1 51860U 22022J   24197.40750022 -.00004282  00000-0 -25106-3 0  9996,2 51860  53.2156 192.8681 0001215 108.4730 251.6394 15.08848917132198,6917.853,95.437,540.559,538.878,0.0
51860.0,STARLINK-3559,PAYLOAD,2024-07-16 04:51:26,15.08824347,0.0001391,53.2158,189.2996,92.6184,267.4967,1.2476e-05,-8.9e-07,0.0,0 STARLINK-3559,1 51860U 22022J   24198.20239083 -.00000089  00000-0  12476-4 0  9991,2 51860  53.2158 189.2996 0001391  92.6184 267.4967 15.08824347132317,6917.928,95.439,540.756,538.831,0.0
51860.0,STARLINK-3559,PAYLOAD,2024-07-16 06:26:49,15.08826555,0.000138,53.2158,189.0024,92.2175,267.8975,3.0142e-05,1.92e-06,0.0,0 STARLINK-3559,1 51860U 22022J   24198.26862948  .00000192  00000-0  30142-4 0  9993,2 51860  53.2158 189.0024 0001380  92.2175 267.8975 15.08826555132328,6917.921,95.438,540.741,538.832,0.0
51860.0,STARLINK-3559,PAYLOAD,2024-07-17 06:17:37,15.08826632,0.0001277,53.2157,184.5423,91.09,269.0238,4.9545e-05,5e-06,0.0,0 STARLINK-3559,1 51860U 22022J   24199.26223877  .00000500  00000-0  49545-4 0  9996,2 51860  53.2157 184.5423 0001277  91.0900 269.0238 15.08826632132476,6917.921,95.438,540.67,538.903,0.0
51860.0,STARLINK-3559,PAYLOAD,2024-07-17 07:53:00,15.08827797,0.0001308,53.216,184.2448,90.7535,269.3607,6.0973e-05,6.82e-06,0.0,0 STARLINK-3559,1 51860U 22022J   24199.32847831  .00000682  00000-0  60973-4 0  9994,2 51860  53.2160 184.2448 0001308  90.7535 269.3607 15.08827797132486,6917.918,95.438,540.688,538.878,0.0
51860.0,STARLINK-3559,PAYLOAD,2024-07-18 04:33:01,15.08834744,0.0001345,53.2164,180.3796,92.4688,267.6458,0.00011926,1.61e-05,0.0,0 STARLINK-3559,1 51860U 22022J   24200.18959984  .00001610  00000-0  11926-3 0  9999,2 51860  53.2164 180.3796 0001345  92.4688 267.6458 15.08834744132612,6917.896,95.438,540.692,538.831,0.0
51860.0,STARLINK-3559,PAYLOAD,2024-07-18 07:43:47,15.08838846,0.0001308,53.2162,179.7842,88.3498,271.7644,0.00015184,2.129e-05,0.0,0 STARLINK-3559,1 51860U 22022J   24200.32207727  .00002129  00000-0  15184-3 0  9992,2 51860  53.2162 179.7842 0001308  88.3498 271.7644 15.08838846132638,6917.884,95.438,540.654,538.844,0.0
51860.0,STARLINK-3559,PAYLOAD,2024-07-18 15:40:43,15.0883911,0.0001265,53.2159,178.2966,83.1246,276.989,0.00016182,2.288e-05,0.0,0 STARLINK-3559,1 51860U 22022J   24200.65327829  .00002288  00000-0  16182-3 0  9999,2 51860  53.2159 178.2966 0001265  83.1246 276.9890 15.08839110132681,6917.883,95.438,540.623,538.873,0.0
51860.0,STARLINK-3559,PAYLOAD,2024-07-19 07:34:34,15.08841636,0.0001419,53.2166,175.3243,82.0639,278.0514,0.00013836,1.915e-05,0.0,0 STARLINK-3559,1 51860U 22022J   24201.31568053  .00001915  00000-0  13836-3 0  9998,2 51860  53.2166 175.3243 0001419  82.0639 278.0514 15.08841636132783,6917.875,95.437,540.722,538.759,0.0
51860.0,STARLINK-3559,PAYLOAD,2024-07-19 15:31:30,15.08839252,0.0001403,53.2165,173.8395,89.9048,270.2105,0.00015372,2.159e-05,0.0,0 STARLINK-3559,1 51860U 22022J   24201.64688114  .00002159  00000-0  15372-3 0  9993,2 51860  53.2165 173.8395 0001403  89.9048 270.2105 15.08839252132833,6917.883,95.438,540.718,538.777,0.0
51860.0,STARLINK-3559,PAYLOAD,2024-07-20 07:25:21,15.08850048,0.0001367,53.2162,170.861,93.4607,266.6541,9.6291e-05,1.245e-05,0.0,0 STARLINK-3559,1 51860U 22022J   24202.30927375  .00001245  00000-0  96291-4 0  9997,2 51860  53.2162 170.8610 0001367  93.4607 266.6541 15.08850048132937,6917.85,95.437,540.66,538.769,0.0
51860.0,STARLINK-3559,PAYLOAD,2024-07-20 15:22:17,15.08838841,0.0001443,53.2172,169.3754,85.6259,274.4898,1.8018e-06,-2.59e-06,0.0,0 STARLINK-3559,1 51860U 22022J   24202.64048303 -.00000259  00000-0  18018-5 0  9996,2 51860  53.2172 169.3754 0001443  85.6259 274.4898 15.08838841132985,6917.884,95.438,540.747,538.751,0.0
51860.0,STARLINK-3559,PAYLOAD,2024-07-21 07:16:08,15.08843436,0.0001386,53.2167,166.4,98.6158,261.4992,1.3808e-05,-6.8e-07,0.0,0 STARLINK-3559,1 51860U 22022J   24203.30288072 -.00000068  00000-0  13808-4 0  9998,2 51860  53.2167 166.4000 0001386  98.6158 261.4992 15.08843436133088,6917.87,95.437,540.694,538.776,0.0
51860.0,STARLINK-3559,PAYLOAD,2024-07-22 03:56:09,15.08846072,0.0001505,53.217,162.5337,104.6232,255.4927,5.576e-05,6e-06,0.0,0 STARLINK-3559,1 51860U 22022J   24204.16399813  .00000600  00000-0  55760-4 0  9993,2 51860  53.2170 162.5337 0001505 104.6232 255.4927 15.08846072133211,6917.862,95.437,540.768,538.686,0.0
51860.0,STARLINK-3559,PAYLOAD,2024-07-22 21:25:24,15.08839045,0.0001422,53.2179,159.2654,103.6168,256.4982,0.00012877,1.762e-05,0.0,0 STARLINK-3559,1 51860U 22022J   24204.89264119  .00001762  00000-0  12877-3 0  9994,2 51860  53.2179 159.2654 0001422 103.6168 256.4982 15.08839045133326,6917.883,95.438,540.732,538.765,0.0
